{
  "type": "FeatureCollection",
  "features": [
    {
      "type": "Feature",
      "properties": {
        "norad_id": 34350,
        "name": "IRIDIUM 33 DEB",
        "group": "iridium-33-debris",
        "lat": 79.80493635548737,
        "lon": 158.66274669051685,
        "alt_km": 717.2287709633374,
        "timestamp": "2025-12-20T03:42:47.779019+00:00",
        "meta_object_name": "IRIDIUM 33 DEB",
        "meta_object_id": "1997-051ES",
        "meta_epoch": "2025-12-19T12:52:33.855744",
        "meta_mean_motion": 14.4540166,
        "meta_eccentricity": 0.0023302,
        "meta_inclination": 86.3271,
        "meta_ra_of_asc_node": 359.8577,
        "meta_arg_of_pericenter": 114.287,
        "meta_mean_anomaly": 10.4643,
        "meta_ephemeris_type": 0,
        "meta_classification_type": "U",
        "meta_norad_cat_id": 34350,
        "meta_element_set_no": 999,
        "meta_rev_at_epoch": 88391,
        "meta_bstar": 0.00023595,
        "meta_mean_motion_dot": 8.53e-06,
        "meta_mean_motion_ddot": 0,
        "tle_line1": "1 34350U 97051ES  25353.53650296  .00000853  00000+0  23595-3 0  9993",
        "tle_line2": "2 34350  86.3271 359.8577 0023302 114.2870  10.4643 14.45401660883919"
      },
      "geometry": {
        "type": "Point",
        "coordinates": [
          158.66274669051685,
          79.80493635548737
        ]
      }
    },
    {
      "type": "Feature",
      "properties": {
        "norad_id": 34366,
        "name": "IRIDIUM 33 DEB",
        "group": "iridium-33-debris",
        "lat": -60.65097900188178,
        "lon": 39.606136631746736,
        "alt_km": 735.7060848832298,
        "timestamp": "2025-12-20T03:42:47.779029+00:00",
        "meta_object_name": "IRIDIUM 33 DEB",
        "meta_object_id": "1997-051FJ",
        "meta_epoch": "2025-12-18T14:34:32.858400",
        "meta_mean_motion": 14.54103617,
        "meta_eccentricity": 0.00228949,
        "meta_inclination": 86.3697,
        "meta_ra_of_asc_node": 46.7619,
        "meta_arg_of_pericenter": 121.3306,
        "meta_mean_anomaly": 2.8167,
        "meta_ephemeris_type": 0,
        "meta_classification_type": "U",
        "meta_norad_cat_id": 34366,
        "meta_element_set_no": 999,
        "meta_rev_at_epoch": 88267,
        "meta_bstar": 0.00070491505,
        "meta_mean_motion_dot": 3.008e-05,
        "meta_mean_motion_ddot": 0,
        "tle_line1": "1 34366U 97051FJ  25352.60732475  .00003008  00000+0  70492-3 0  9990",
        "tle_line2": "2 34366  86.3697  46.7619 0022894 121.3306   2.8167 14.54103617882674"
      },
      "geometry": {
        "type": "Point",
        "coordinates": [
          39.606136631746736,
          -60.65097900188178
        ]
      }
    },
    {
      "type": "Feature",
      "properties": {
        "norad_id": 34375,
        "name": "IRIDIUM 33 DEB",
        "group": "iridium-33-debris",
        "lat": -28.554023887767702,
        "lon": 177.76544553325627,
        "alt_km": 887.6111151247751,
        "timestamp": "2025-12-20T03:42:47.779040+00:00",
        "meta_object_name": "IRIDIUM 33 DEB",
        "meta_object_id": "1997-051FT",
        "meta_epoch": "2025-12-19T12:41:12.374016",
        "meta_mean_motion": 14.1800419,
        "meta_eccentricity": 0.0103655,
        "meta_inclination": 86.432,
        "meta_ra_of_asc_node": 179.9636,
        "meta_arg_of_pericenter": 105.4895,
        "meta_mean_anomaly": 272.7356,
        "meta_ephemeris_type": 0,
        "meta_classification_type": "U",
        "meta_norad_cat_id": 34375,
        "meta_element_set_no": 999,
        "meta_rev_at_epoch": 86808,
        "meta_bstar": 0.00031892,
        "meta_mean_motion_dot": 7.08e-06,
        "meta_mean_motion_ddot": 0,
        "tle_line1": "1 34375U 97051FT  25353.52861544  .00000708  00000+0  31892-3 0  9997",
        "tle_line2": "2 34375  86.4320 179.9636 0103655 105.4895 272.7356 14.18004190868080"
      },
      "geometry": {
        "type": "Point",
        "coordinates": [
          177.76544553325627,
          -28.554023887767702
        ]
      }
    },
    {
      "type": "Feature",
      "properties": {
        "norad_id": 34376,
        "name": "IRIDIUM 33 DEB",
        "group": "iridium-33-debris",
        "lat": 84.62854181028263,
        "lon": 139.68303352757871,
        "alt_km": 663.9483153898991,
        "timestamp": "2025-12-20T03:42:47.779051+00:00",
        "meta_object_name": "IRIDIUM 33 DEB",
        "meta_object_id": "1997-051FU",
        "meta_epoch": "2025-12-19T19:04:33.085632",
        "meta_mean_motion": 14.62657013,
        "meta_eccentricity": 0.0028006,
        "meta_inclination": 86.2977,
        "meta_ra_of_asc_node": 3.368,
        "meta_arg_of_pericenter": 143.3641,
        "meta_mean_anomaly": 216.9493,
        "meta_ephemeris_type": 0,
        "meta_classification_type": "U",
        "meta_norad_cat_id": 34376,
        "meta_element_set_no": 999,
        "meta_rev_at_epoch": 88110,
        "meta_bstar": 0.00093405,
        "meta_mean_motion_dot": 4.799e-05,
        "meta_mean_motion_ddot": 0,
        "tle_line1": "1 34376U 97051FU  25353.79482738  .00004799  00000+0  93405-3 0  9993",
        "tle_line2": "2 34376  86.2977   3.3680 0028006 143.3641 216.9493 14.62657013881109"
      },
      "geometry": {
        "type": "Point",
        "coordinates": [
          139.68303352757871,
          84.62854181028263
        ]
      }
    },
    {
      "type": "Feature",
      "properties": {
        "norad_id": 34486,
        "name": "IRIDIUM 33 DEB",
        "group": "iridium-33-debris",
        "lat": 60.0899984126776,
        "lon": -177.6937621141887,
        "alt_km": 564.7621231180665,
        "timestamp": "2025-12-20T03:42:47.779061+00:00",
        "meta_object_name": "IRIDIUM 33 DEB",
        "meta_object_id": "1997-051GB",
        "meta_epoch": "2025-12-19T11:48:44.838432",
        "meta_mean_motion": 14.96085447,
        "meta_eccentricity": 0.0013897,
        "meta_inclination": 86.393,
        "meta_ra_of_asc_node": 8.9076,
        "meta_arg_of_pericenter": 92.9331,
        "meta_mean_anomaly": 60.6575,
        "meta_ephemeris_type": 0,
        "meta_classification_type": "U",
        "meta_norad_cat_id": 34486,
        "meta_element_set_no": 999,
        "meta_rev_at_epoch": 89087,
        "meta_bstar": 0.0015014,
        "meta_mean_motion_dot": 0.00016952,
        "meta_mean_motion_ddot": 0,
        "tle_line1": "1 34486U 97051GB  25353.49218563  .00016952  00000+0  15014-2 0  9998",
        "tle_line2": "2 34486  86.3930   8.9076 0013897  92.9331  60.6575 14.96085447890870"
      },
      "geometry": {
        "type": "Point",
        "coordinates": [
          -177.6937621141887,
          60.0899984126776
        ]
      }
    },
    {
      "type": "Feature",
      "properties": {
        "norad_id": 34487,
        "name": "IRIDIUM 33 DEB",
        "group": "iridium-33-debris",
        "lat": 10.541239709476754,
        "lon": -171.496939531528,
        "alt_km": 739.181590404628,
        "timestamp": "2025-12-20T03:42:47.779071+00:00",
        "meta_object_name": "IRIDIUM 33 DEB",
        "meta_object_id": "1997-051GC",
        "meta_epoch": "2025-12-18T07:45:56.041056",
        "meta_mean_motion": 14.43223269,
        "meta_eccentricity": 0.00331222,
        "meta_inclination": 86.3431,
        "meta_ra_of_asc_node": 9.9731,
        "meta_arg_of_pericenter": 110.9986,
        "meta_mean_anomaly": 270.0816,
        "meta_ephemeris_type": 0,
        "meta_classification_type": "U",
        "meta_norad_cat_id": 34487,
        "meta_element_set_no": 999,
        "meta_rev_at_epoch": 88329,
        "meta_bstar": 0.00015301486,
        "meta_mean_motion_dot": 5.38e-06,
        "meta_mean_motion_ddot": 0,
        "tle_line1": "1 34487U 97051GC  25352.32356529  .00000538  00000+0  15301-3 0  9998",
        "tle_line2": "2 34487  86.3431   9.9731 0033122 110.9986 270.0816 14.43223269883297"
      },
      "geometry": {
        "type": "Point",
        "coordinates": [
          -171.496939531528,
          10.541239709476754
        ]
      }
    },
    {
      "type": "Feature",
      "properties": {
        "norad_id": 34488,
        "name": "IRIDIUM 33 DEB",
        "group": "iridium-33-debris",
        "lat": -60.75123101469249,
        "lon": -64.4592417479977,
        "alt_km": 480.5291844483272,
        "timestamp": "2025-12-20T03:42:47.779082+00:00",
        "meta_object_name": "IRIDIUM 33 DEB",
        "meta_object_id": "1997-051GD",
        "meta_epoch": "2025-12-18T20:36:21.699936",
        "meta_mean_motion": 15.30898743,
        "meta_eccentricity": 0.00115528,
        "meta_inclination": 86.3236,
        "meta_ra_of_asc_node": 302.7776,
        "meta_arg_of_pericenter": 41.1127,
        "meta_mean_anomaly": 319.099,
        "meta_ephemeris_type": 0,
        "meta_classification_type": "U",
        "meta_norad_cat_id": 34488,
        "meta_element_set_no": 999,
        "meta_rev_at_epoch": 89333,
        "meta_bstar": 0.0035214405,
        "meta_mean_motion_dot": 0.0010661,
        "meta_mean_motion_ddot": 0,
        "tle_line1": "1 34488U 97051GD  25352.85858449  .00106610  00000+0  35214-2 0  9997",
        "tle_line2": "2 34488  86.3236 302.7776 0011552  41.1127 319.0990 15.30898743893334"
      },
      "geometry": {
        "type": "Point",
        "coordinates": [
          -64.4592417479977,
          -60.75123101469249
        ]
      }
    }
  ]
}